     2.100          NAVIGATION                              RINEX VERSION / TYPE
fic2rin                                 08/27/2015 00:05:25 PGM / RUN BY / DATE
                                                            END OF HEADER
28 15  8 26  1 59 44.0  .463081523776D-03  .261479726760D-11  .000000000000D+00
     .320000000000D+02  .406250000000D+02  .382051628270D-08  .242904047839D+01
     .193901360035D-05  .196120316396D-01  .256299972534D-05  .515369880486D+04
     .266384000000D+06  .244006514549D-06  .698002408911D+00 -.100582838058D-06
     .989208586451D+00  .339562500000D+03 -.165879411157D+01 -.770710674622D-08
     .507163982558D-10  .100000000000D+01  .185900000000D+04  .000000000000D+00
     .240000000000D+01  .000000000000D+00 -.111758708954D-07  .320000000000D+02
     .261456000000D+06  .400000000000D+01
16 15  8 26  1 59 44.0 -.934540294111D-04  .409272615798D-11  .000000000000D+00
     .200000000000D+01  .524687500000D+02  .399873799206D-08  .257534906307D+01
     .257976353168D-05  .808828568552D-02  .308826565742D-05  .515360805130D+04
     .266384000000D+06 -.819563865662D-07  .692745916037D+00  .111758708954D-07
     .990573465612D+00  .337531250000D+03  .324158771543D+00 -.802497712965D-08
     .101789954246D-09  .100000000000D+01  .185900000000D+04  .000000000000D+00
     .240000000000D+01  .000000000000D+00 -.102445483208D-07  .200000000000D+01
     .263916000000D+06  .400000000000D+01
14 15  8 26  1 59 44.0  .392128713429D-04 -.261479726760D-11  .000000000000D+00
     .160000000000D+02 -.159687500000D+02  .460090593191D-08  .157496749391D+01
    -.951811671257D-06  .846622919198D-02  .920146703720D-05  .515364034081D+04
     .266384000000D+06 -.189989805222D-06 -.139151925498D+01 -.163912773132D-06
     .965534434796D+00  .207812500000D+03 -.196140741770D+01 -.803819196582D-08
    -.602525097589D-09  .100000000000D+01  .185900000000D+04  .000000000000D+00
     .240000000000D+01  .000000000000D+00 -.931322574615D-08  .160000000000D+02
     .265446000000D+06  .400000000000D+01
14 15  8 26  3 59 44.0  .391937792301D-04 -.261479726760D-11  .000000000000D+00
     .170000000000D+02 -.107500000000D+02  .456090426568D-08  .262515117007D+01
    -.620260834694D-06  .846577528864D-02  .880099833012D-05  .515364102364D+04
     .273584000000D+06  .372529029846D-07 -.139157619029D+01 -.167638063431D-06
     .965531021808D+00  .208875000000D+03 -.196138924826D+01 -.783639784600D-08
    -.602525097589D-09  .100000000000D+01  .185900000000D+04  .000000000000D+00
     .240000000000D+01  .000000000000D+00 -.931322574615D-08  .170000000000D+02
     .266406000000D+06  .400000000000D+01
16 15  8 26  3 59 44.0 -.934246927500D-04  .409272615798D-11  .000000000000D+00
     .300000000000D+01  .539062500000D+02  .403981113149D-08 -.265764117621D+01
     .274553894997D-05  .808746402618D-02  .269897282124D-05  .515360959435D+04
     .273584000000D+06 -.894069671631D-07  .692687762117D+00 -.838190317154D-07
     .990573987874D+00  .343750000000D+03  .324180529523D+00 -.809212278368D-08
     .131434046184D-09  .100000000000D+01  .185900000000D+04  .000000000000D+00
     .240000000000D+01  .000000000000D+00 -.102445483208D-07  .300000000000D+01
     .266406000000D+06  .400000000000D+01
24 15  8 26  3 59 44.0 -.361260026693D-05 -.568434188608D-12  .000000000000D+00
     .170000000000D+02  .811875000000D+02  .461804950316D-08  .783162943069D+00
     .431574881077D-05  .334311567713D-02  .993721187115D-05  .515366661263D+04
     .273584000000D+06  .316649675369D-07 -.438371704513D+00  .353902578354D-07
     .952713028687D+00  .180281250000D+03  .318634197468D+00 -.810712340852D-08
    -.221437795202D-09  .100000000000D+01  .185900000000D+04  .000000000000D+00
     .240000000000D+01  .000000000000D+00  .232830643654D-08  .170000000000D+02
     .266406000000D+06  .400000000000D+01
28 15  8 26  3 59 44.0  .463100150228D-03  .261479726760D-11  .000000000000D+00
     .330000000000D+02  .454062500000D+02  .389266214500D-08 -.280400173836D+01
     .237114727497D-05  .196118041640D-01  .278837978840D-05  .515369934654D+04
     .273584000000D+06  .257045030594D-06  .697946523977D+00  .372529029846D-07
     .989209105787D+00  .340218750000D+03 -.165877671162D+01 -.770960685036D-08
     .133934150324D-09  .100000000000D+01  .185900000000D+04  .000000000000D+00
     .240000000000D+01  .000000000000D+00 -.111758708954D-07  .330000000000D+02
     .266406000000D+06  .400000000000D+01
 1 15  8 26  4  0  0.0 -.631436705589D-06  .682121026330D-12  .000000000000D+00
     .300000000000D+02 -.481250000000D+02  .427267797419D-08  .520328462706D+00
    -.247359275818D-05  .461404852103D-02  .108666718006D-04  .515366449738D+04
     .273600000000D+06  .484287738800D-07  .272743333316D+01  .931322574615D-07
     .963097636059D+00  .173812500000D+03  .451339481427D+00 -.785175562857D-08
     .335728270144D-09  .100000000000D+01  .185900000000D+04  .000000000000D+00
     .240000000000D+01  .000000000000D+00  .512227416039D-08  .300000000000D+02
     .266406000000D+06  .400000000000D+01
 2 15  8 26  4  0  0.0  .585901085287D-03  .181898940355D-11  .000000000000D+00
     .900000000000D+02 -.370625000000D+02  .478662795370D-08  .106258053905D+01
    -.199861824512D-05  .147462043678D-01  .110361725092D-04  .515362086868D+04
     .273600000000D+06 -.240281224251D-06  .268790910488D+01  .540167093277D-07
     .941735911698D+00  .157093750000D+03 -.223866445777D+01 -.829463121897D-08
     .192150860997D-09  .100000000000D+01  .185900000000D+04  .000000000000D+00
     .240000000000D+01  .000000000000D+00 -.204890966415D-07  .900000000000D+02
     .266406000000D+06  .400000000000D+01
 3 15  8 26  4  0  0.0  .185156241059D-04  .216004991671D-11  .000000000000D+00
     .230000000000D+02  .216875000000D+02  .500485132929D-08  .245873677036D+01
     .120513141155D-05  .661751953885D-03  .648573040962D-05  .515360942078D+04
     .273600000000D+06 -.279396772385D-07 -.251540648192D+01 -.335276126862D-07
     .959365903201D+00  .255843750000D+03 -.256663246172D+01 -.819819863074D-08
     .415374444870D-09  .100000000000D+01  .185900000000D+04  .000000000000D+00
     .240000000000D+01  .000000000000D+00  .186264514923D-08  .230000000000D+02
     .266406000000D+06  .400000000000D+01
 4 15  8 26  4  0  0.0 -.138878822327D-04 -.386535248253D-11  .000000000000D+00
     .490000000000D+02 -.437187500000D+02  .482270088485D-08  .304147733111D+00
    -.236183404922D-05  .117511957651D-01  .108014792204D-04  .515366075516D+04
     .273600000000D+06 -.121071934700D-06  .270306412865D+01  .132247805595D-06
     .940824797541D+00  .165156250000D+03  .108961398803D+01 -.826141554969D-08
     .311798701953D-09  .100000000000D+01  .185900000000D+04  .000000000000D+00
     .240000000000D+01  .000000000000D+00 -.651925802231D-08  .490000000000D+02
     .266406000000D+06  .400000000000D+01
 5 15  8 26  4  0  0.0 -.202480237931D-03  .420641299570D-11  .000000000000D+00
     .500000000000D+02  .194375000000D+02  .528093425782D-08 -.273818101778D+01
     .918284058571D-06  .431261130143D-02  .655837357044D-05  .515362189293D+04
     .273600000000D+06 -.577419996262D-07 -.252364267998D+01 -.102445483208D-06
     .946555400220D+00  .249500000000D+03  .398655804700D+00 -.831713215622D-08
     .354657630057D-09  .100000000000D+01  .185900000000D+04  .000000000000D+00
     .240000000000D+01  .000000000000D+00 -.107102096081D-07  .500000000000D+02
     .266406000000D+06  .400000000000D+01
 6 15  8 26  4  0  0.0  .453139655292D-04  .761701812735D-11  .000000000000D+00
     .200000000000D+02 -.387812500000D+02  .419946063868D-08  .302394376200D+01
    -.198185443878D-05  .201805494726D-03  .108312815428D-04  .515381538391D+04
     .273600000000D+06 -.242143869400D-07  .271896219338D+01 -.353902578354D-07
     .962963512804D+00  .166093750000D+03  .260137779015D+01 -.785211278630D-08
     .355371945525D-09  .100000000000D+01  .185900000000D+04  .000000000000D+00
     .240000000000D+01  .000000000000D+00  .419095158577D-08  .200000000000D+02
     .266406000000D+06  .400000000000D+01
 7 15  8 26  4  0  0.0  .481829978526D-03  .193267624127D-11  .000000000000D+00
     .117000000000D+03  .727187500000D+02  .424696261733D-08 -.122187346233D+00
     .368990004063D-05  .887875026092D-02  .101048499346D-04  .515370302773D+04
     .273600000000D+06  .465661287308D-07 -.395972767592D+00  .707805156708D-07
     .969577899406D+00  .187468750000D+03 -.271689645065D+01 -.799176146037D-08
    -.201794119821D-09  .100000000000D+01  .185900000000D+04  .000000000000D+00
     .340000000000D+01  .000000000000D+00 -.111758708954D-07  .117000000000D+03
     .266406000000D+06  .400000000000D+01
 8 15  8 26  4  0  0.0 -.302866101265D-05 -.125055521494D-11  .000000000000D+00
     .109000000000D+03 -.106125000000D+03  .449411576939D-08 -.210880143200D+01
    -.550411641598D-05  .134887546301D-02  .504031777382D-05  .515356579971D+04
     .273600000000D+06  .113621354103D-06  .166948958026D+01 -.856816768646D-07
     .959982700184D+00  .282562500000D+03 -.181892406245D+01 -.823248577322D-08
    -.241438628317D-09  .100000000000D+01  .185900000000D+04  .000000000000D+00
     .240000000000D+01  .000000000000D+00  .745058059692D-08  .109000000000D+03
     .266406000000D+06  .400000000000D+01
 9 15  8 26  4  0  0.0 -.109979882836D-04  .341060513165D-12  .000000000000D+00
     .630000000000D+02 -.237187500000D+02  .495413493103D-08  .174839356635D+01
    -.111944973469D-05  .381410238333D-03  .797770917416D-05  .515374360657D+04
     .273600000000D+06  .931322574615D-08 -.147290430479D+01 -.391155481339D-07
     .956386492056D+00  .222718750000D+03  .281362059589D+01 -.819891294621D-08
    -.450375902821D-09  .100000000000D+01  .185900000000D+04  .000000000000D+00
     .240000000000D+01  .000000000000D+00  .931322574615D-09  .630000000000D+02
     .266406000000D+06  .400000000000D+01
